start=new Date('2021-11-23T00:00:00.000Z').valueOf();
sats=[{"TIME_SYSTEM":"UTC","CENTER_NAME":"EARTH","EPHEMERIS_TYPE":"0","COUNTRY_CODE":"US","OBJECT_ID":"2020-019BA","REF_FRAME":"TEME","MEAN_ANOMALY":"298.0608","MEAN_MOTION_DOT":"0.00001439","GP_ID":"190263350","ECCENTRICITY":"0.00014810","TLE_LINE2":"2 45408  53.0551   6.5223 0001481  62.0531 298.0608 15.06401378 93089","LAUNCH_DATE":"2020-03-18","BSTAR":"0.00011549000000","DECAY_DATE":null,"MEAN_MOTION_DDOT":"0.0000000000000","APOAPSIS":"548.235","MEAN_MOTION":"15.06401378","EPOCH":"2021-11-22T11:51:58.559328","INCLINATION":"53.0551","SITE":"AFETR","MEAN_ELEMENT_THEORY":"SGP4","ELEMENT_SET_NO":"999","PERIAPSIS":"546.184","CLASSIFICATION_TYPE":"U","NORAD_CAT_ID":"45408","RA_OF_ASC_NODE":"6.5223","SEMIMAJOR_AXIS":"6925.344","OBJECT_NAME":"STARLINK-1278","ARG_OF_PERICENTER":"62.0531","RCS_SIZE":"LARGE","OBJECT_TYPE":"PAYLOAD","FILE":"3221278","PERIOD":"95.592","REV_AT_EPOCH":"9308","TLE_LINE1":"1 45408U 20019BA  21326.49442777  .00001439  00000-0  11549-3 0  9991"},{"PERIOD":"95.592","TLE_LINE1":"1 45409U 20019BB  21326.42347413  .00000774  00000-0  70863-4 0  9992","REV_AT_EPOCH":"9349","OBJECT_TYPE":"PAYLOAD","FILE":"3221278","ARG_OF_PERICENTER":"57.9838","OBJECT_NAME":"STARLINK-1282","RCS_SIZE":"LARGE","SEMIMAJOR_AXIS":"6925.347","RA_OF_ASC_NODE":"336.8487","CLASSIFICATION_TYPE":"U","NORAD_CAT_ID":"45409","SITE":"AFETR","PERIAPSIS":"546.285","ELEMENT_SET_NO":"999","MEAN_ELEMENT_THEORY":"SGP4","EPOCH":"2021-11-22T10:09:48.164832","INCLINATION":"53.0539","APOAPSIS":"548.140","MEAN_MOTION_DDOT":"0.0000000000000","MEAN_MOTION":"15.06400413","TLE_LINE2":"2 45409  53.0539 336.8487 0001339  57.9838 302.1281 15.06400413 93490","DECAY_DATE":null,"LAUNCH_DATE":"2020-03-18","BSTAR":"0.00007086300000","ECCENTRICITY":"0.00013390","MEAN_ANOMALY":"302.1281","REF_FRAME":"TEME","MEAN_MOTION_DOT":"0.00000774","GP_ID":"190261605","COUNTRY_CODE":"US","EPHEMERIS_TYPE":"0","OBJECT_ID":"2020-019BB","TIME_SYSTEM":"UTC","CENTER_NAME":"EARTH"},{"MEAN_ELEMENT_THEORY":"SGP4","PERIAPSIS":"339.429","ELEMENT_SET_NO":"999","SITE":"AFETR","NORAD_CAT_ID":"45410","CLASSIFICATION_TYPE":"U","SEMIMAJOR_AXIS":"6722.588","RA_OF_ASC_NODE":"273.5060","RCS_SIZE":"LARGE","ARG_OF_PERICENTER":"285.8607","OBJECT_NAME":"STARLINK-1285","FILE":"3221594","OBJECT_TYPE":"PAYLOAD","TLE_LINE1":"1 45410U 20019BC  21325.97194977  .00039476  00000-0  26208-3 0  9992","REV_AT_EPOCH":"9432","PERIOD":"91.425","CENTER_NAME":"EARTH","TIME_SYSTEM":"UTC","OBJECT_ID":"2020-019BC","EPHEMERIS_TYPE":"0","COUNTRY_CODE":"US","GP_ID":"190273296","MEAN_MOTION_DOT":"0.00039476","REF_FRAME":"TEME","MEAN_ANOMALY":"74.1588","ECCENTRICITY":"0.00074730","LAUNCH_DATE":"2020-03-18","BSTAR":"0.00026208000000","DECAY_DATE":null,"TLE_LINE2":"2 45410  53.0562 273.5060 0007473 285.8607  74.1588 15.75063421 94322","MEAN_MOTION":"15.75063421","MEAN_MOTION_DDOT":"0.0000000000000","APOAPSIS":"349.477","INCLINATION":"53.0562","EPOCH":"2021-11-21T23:19:36.460128"},{"CLASSIFICATION_TYPE":"U","NORAD_CAT_ID":"45411","SITE":"AFETR","MEAN_ELEMENT_THEORY":"SGP4","ELEMENT_SET_NO":"999","PERIAPSIS":"546.138","RA_OF_ASC_NODE":"337.3649","SEMIMAJOR_AXIS":"6925.370","ARG_OF_PERICENTER":"61.4646","OBJECT_NAME":"STARLINK-1293","RCS_SIZE":"LARGE","PERIOD":"95.593","TLE_LINE1":"1 45411U 20019BD  21326.30552846 -.00000806  00000-0 -35203-4 0  9997","REV_AT_EPOCH":"9349","OBJECT_TYPE":"PAYLOAD","FILE":"3221278","EPHEMERIS_TYPE":"0","COUNTRY_CODE":"US","OBJECT_ID":"2020-019BD","TIME_SYSTEM":"UTC","CENTER_NAME":"EARTH","ECCENTRICITY":"0.00015840","REF_FRAME":"TEME","MEAN_ANOMALY":"298.6502","GP_ID":"190262607","MEAN_MOTION_DOT":"-0.00000806","TLE_LINE2":"2 45411  53.0551 337.3649 0001584  61.4646 298.6502 15.06392869 93492","BSTAR":"-0.00003520300000","LAUNCH_DATE":"2020-03-18","DECAY_DATE":null,"EPOCH":"2021-11-22T07:19:57.658944","INCLINATION":"53.0551","MEAN_MOTION_DDOT":"0.0000000000000","APOAPSIS":"548.332","MEAN_MOTION":"15.06392869"},{"FILE":"3221278","OBJECT_TYPE":"PAYLOAD","REV_AT_EPOCH":"9343","TLE_LINE1":"1 45412U 20019BE  21326.07331572 -.00000615  00000-0 -22407-4 0  9993","PERIOD":"95.592","RCS_SIZE":"LARGE","ARG_OF_PERICENTER":"60.7009","OBJECT_NAME":"STARLINK-1296","SEMIMAJOR_AXIS":"6925.364","RA_OF_ASC_NODE":"338.4202","PERIAPSIS":"546.131","ELEMENT_SET_NO":"999","MEAN_ELEMENT_THEORY":"SGP4","SITE":"AFETR","NORAD_CAT_ID":"45412","CLASSIFICATION_TYPE":"U","MEAN_MOTION":"15.06394859","APOAPSIS":"548.328","MEAN_MOTION_DDOT":"0.0000000000000","INCLINATION":"53.0563","EPOCH":"2021-11-22T01:45:34.478208","DECAY_DATE":null,"BSTAR":"-0.00002240700000","LAUNCH_DATE":"2020-03-18","TLE_LINE2":"2 45412  53.0563 338.4202 0001586  60.7009 299.4138 15.06394859 93439","GP_ID":"190262850","MEAN_MOTION_DOT":"-0.00000615","REF_FRAME":"TEME","MEAN_ANOMALY":"299.4138","ECCENTRICITY":"0.00015860","CENTER_NAME":"EARTH","TIME_SYSTEM":"UTC","OBJECT_ID":"2020-019BE","COUNTRY_CODE":"US","EPHEMERIS_TYPE":"0"},{"OBJECT_NAME":"STARLINK-1298","ARG_OF_PERICENTER":"57.7697","RCS_SIZE":"LARGE","PERIOD":"95.592","REV_AT_EPOCH":"9359","TLE_LINE1":"1 45413U 20019BF  21326.50088913  .00004038  00000-0  28978-3 0  9999","OBJECT_TYPE":"PAYLOAD","FILE":"3221613","CLASSIFICATION_TYPE":"U","NORAD_CAT_ID":"45413","SITE":"AFETR","PERIAPSIS":"546.140","ELEMENT_SET_NO":"999","MEAN_ELEMENT_THEORY":"SGP4","SEMIMAJOR_AXIS":"6925.333","RA_OF_ASC_NODE":"336.5033","TLE_LINE2":"2 45413  53.0534 336.5033 0001528  57.7697 302.3440 15.06405151 93599","DECAY_DATE":null,"LAUNCH_DATE":"2020-03-18","BSTAR":"0.00028978000000","EPOCH":"2021-11-22T12:01:16.820832","INCLINATION":"53.0534","APOAPSIS":"548.256","MEAN_MOTION_DDOT":"0.0000000000000","MEAN_MOTION":"15.06405151","COUNTRY_CODE":"US","EPHEMERIS_TYPE":"0","OBJECT_ID":"2020-019BF","TIME_SYSTEM":"UTC","CENTER_NAME":"EARTH","ECCENTRICITY":"0.00015280","REF_FRAME":"TEME","MEAN_ANOMALY":"302.3440","MEAN_MOTION_DOT":"0.00004038","GP_ID":"190272842"},{"DECAY_DATE":null,"BSTAR":"0.00013797000000","LAUNCH_DATE":"2020-03-18","TLE_LINE2":"2 45414  53.0543 336.8667 0001589  58.8412 301.2733 15.06403756 93479","MEAN_MOTION":"15.06403756","APOAPSIS":"548.302","MEAN_MOTION_DDOT":"0.0000000000000","INCLINATION":"53.0543","EPOCH":"2021-11-22T10:04:29.671104","CENTER_NAME":"EARTH","TIME_SYSTEM":"UTC","OBJECT_ID":"2020-019BG","COUNTRY_CODE":"US","EPHEMERIS_TYPE":"0","MEAN_MOTION_DOT":"0.00001774","GP_ID":"190261856","REF_FRAME":"TEME","MEAN_ANOMALY":"301.2733","ECCENTRICITY":"0.00015890","RCS_SIZE":"LARGE","OBJECT_NAME":"STARLINK-1309","ARG_OF_PERICENTER":"58.8412","FILE":"3221278","OBJECT_TYPE":"PAYLOAD","TLE_LINE1":"1 45414U 20019BG  21326.41978786  .00001774  00000-0  13797-3 0  9993","REV_AT_EPOCH":"9347","PERIOD":"95.592","ELEMENT_SET_NO":"999","PERIAPSIS":"546.102","MEAN_ELEMENT_THEORY":"SGP4","SITE":"AFETR","NORAD_CAT_ID":"45414","CLASSIFICATION_TYPE":"U","RA_OF_ASC_NODE":"336.8667","SEMIMAJOR_AXIS":"6925.337"},{"OBJECT_TYPE":"PAYLOAD","FILE":"3221278","PERIOD":"95.593","REV_AT_EPOCH":"9351","TLE_LINE1":"1 45415U 20019BH  21326.44559573  .00000682  00000-0  64699-4 0  9991","OBJECT_NAME":"STARLINK-1316","ARG_OF_PERICENTER":"57.8751","RCS_SIZE":"LARGE","SEMIMAJOR_AXIS":"6925.379","RA_OF_ASC_NODE":"336.7357","SITE":"AFETR","PERIAPSIS":"546.101","ELEMENT_SET_NO":"999","MEAN_ELEMENT_THEORY":"SGP4","CLASSIFICATION_TYPE":"U","NORAD_CAT_ID":"45415","APOAPSIS":"548.386","MEAN_MOTION_DDOT":"0.0000000000000","MEAN_MOTION":"15.06390216","EPOCH":"2021-11-22T10:41:39.471072","INCLINATION":"53.0532","TLE_LINE2":"2 45415  53.0532 336.7357 0001650  57.8751 302.2398 15.06390216 93516","DECAY_DATE":null,"BSTAR":"0.00006469900000","LAUNCH_DATE":"2020-03-18","MEAN_ANOMALY":"302.2398","REF_FRAME":"TEME","MEAN_MOTION_DOT":"0.00000682","GP_ID":"190263108","ECCENTRICITY":"0.00016500","TIME_SYSTEM":"UTC","CENTER_NAME":"EARTH","COUNTRY_CODE":"US","EPHEMERIS_TYPE":"0","OBJECT_ID":"2020-019BH"},{"RCS_SIZE":"LARGE","ARG_OF_PERICENTER":"55.8333","OBJECT_NAME":"STARLINK-1318","TLE_LINE1":"1 45416U 20019BJ  21326.01434758  .00001336  00000-0  10863-3 0  9992","REV_AT_EPOCH":"9343","PERIOD":"95.593","FILE":"3221278","OBJECT_TYPE":"PAYLOAD","NORAD_CAT_ID":"45416","CLASSIFICATION_TYPE":"U","MEAN_ELEMENT_THEORY":"SGP4","ELEMENT_SET_NO":"999","PERIAPSIS":"546.124","SITE":"AFETR","RA_OF_ASC_NODE":"338.6851","SEMIMAJOR_AXIS":"6925.381","BSTAR":"0.00010863000000","LAUNCH_DATE":"2020-03-18","DECAY_DATE":null,"TLE_LINE2":"2 45416  53.0560 338.6851 0001620  55.8333 304.2810 15.06389336 93432","INCLINATION":"53.0560","EPOCH":"2021-11-22T00:20:39.630912","MEAN_MOTION":"15.06389336","MEAN_MOTION_DDOT":"0.0000000000000","APOAPSIS":"548.368","OBJECT_ID":"2020-019BJ","EPHEMERIS_TYPE":"0","COUNTRY_CODE":"US","CENTER_NAME":"EARTH","TIME_SYSTEM":"UTC","ECCENTRICITY":"0.00016200","GP_ID":"190263351","MEAN_MOTION_DOT":"0.00001336","REF_FRAME":"TEME","MEAN_ANOMALY":"304.2810"},{"CLASSIFICATION_TYPE":"U","NORAD_CAT_ID":"45417","SITE":"AFETR","PERIAPSIS":"546.376","ELEMENT_SET_NO":"999","MEAN_ELEMENT_THEORY":"SGP4","SEMIMAJOR_AXIS":"6925.358","RA_OF_ASC_NODE":"6.2854","ARG_OF_PERICENTER":"68.7047","OBJECT_NAME":"STARLINK-1286","RCS_SIZE":"LARGE","PERIOD":"95.592","REV_AT_EPOCH":"9336","TLE_LINE1":"1 45417U 20019BK  21326.54971922  .00000247  00000-0  35494-4 0  9998","OBJECT_TYPE":"PAYLOAD","FILE":"3221278","COUNTRY_CODE":"US","EPHEMERIS_TYPE":"0","OBJECT_ID":"2020-019BK","TIME_SYSTEM":"UTC","CENTER_NAME":"EARTH","ECCENTRICITY":"0.00012230","MEAN_ANOMALY":"291.4072","REF_FRAME":"TEME","GP_ID":"190261606","MEAN_MOTION_DOT":"0.00000247","TLE_LINE2":"2 45417  53.0564   6.2854 0001223  68.7047 291.4072 15.06397071 93366","DECAY_DATE":null,"BSTAR":"0.00003549400000","LAUNCH_DATE":"2020-03-18","EPOCH":"2021-11-22T13:11:35.740608","INCLINATION":"53.0564","APOAPSIS":"548.070","MEAN_MOTION_DDOT":"0.0000000000000","MEAN_MOTION":"15.06397071"}];
